NORAD_CAT_ID,OBJECT_NAME,OBJECT_TYPE,EPOCH,MEAN_MOTION,ECCENTRICITY,INCLINATION,RA_OF_ASC_NODE,ARG_OF_PERICENTER,MEAN_ANOMALY,BSTAR,MEAN_MOTION_DOT,MEAN_MOTION_DDOT,TLE_LINE0,TLE_LINE1,TLE_LINE2,SEMIMAJOR_AXIS,PERIOD,APOGEE,PERIGEE,DECAYED
52476.0,STARLINK-3835,PAYLOAD,2024-05-15 05:13:03,15.0887109,0.0001359,53.2151,147.8042,113.6965,246.417,0.00050117,7.704e-05,0.0,0 STARLINK-3835,1 52476U 22049AB  24136.21740639  .00007704  00000-0  50117-3 0  9994,2 52476  53.2151 147.8042 0001359 113.6965 246.4170 15.08871090112386,6917.785,95.436,540.59,538.71,0.0
52476.0,STARLINK-3835,PAYLOAD,2024-05-15 08:23:49,15.08877094,0.0001332,53.2147,147.2091,114.1437,245.9695,0.00064556,0.00010011,0.0,0 STARLINK-3835,1 52476U 22049AB  24136.34988286  .00010011  00000-0  64556-3 0  9997,2 52476  53.2147 147.2091 0001332 114.1437 245.9695 15.08877094113488,6917.767,95.435,540.553,538.711,0.0
52476.0,STARLINK-3835,PAYLOAD,2024-05-16 05:03:50,15.08862621,0.0001422,53.2155,143.3419,107.506,252.6088,0.0002292,3.364e-05,0.0,0 STARLINK-3835,1 52476U 22049AB  24137.21099642  .00003364  00000-0  22920-3 0  9995,2 52476  53.2155 143.3419 0001422 107.5060 252.6088 15.08862621112532,6917.811,95.436,540.66,538.693,0.0
52476.0,STARLINK-3835,PAYLOAD,2024-05-16 06:39:13,15.08860423,0.0001446,53.2163,143.0457,110.6087,249.5061,0.00015375,2.161e-05,0.0,0 STARLINK-3835,1 52476U 22049AB  24137.27723606  .00002161  00000-0  15375-3 0  9995,2 52476  53.2163 143.0457 0001446 110.6087 249.5061 15.08860423113625,6917.818,95.436,540.683,538.683,0.0
52476.0,STARLINK-3835,PAYLOAD,2024-05-16 17:46:54,15.08854925,0.0001339,53.215,140.964,108.7256,251.3882,6.6649e-05,7.73e-06,0.0,0 STARLINK-3835,1 52476U 22049AB  24137.74091405  .00000773  00000-0  66649-4 0  9990,2 52476  53.2150 140.9640 0001339 108.7256 251.3882 15.08854925112618,6917.835,95.437,540.626,538.773,0.0
52476.0,STARLINK-3835,PAYLOAD,2024-05-17 06:29:59,15.08856303,0.0001335,53.2152,138.5852,105.7951,254.3188,-6.4987e-05,-1.323e-05,0.0,0 STARLINK-3835,1 52476U 22049AB  24138.27082975 -.00001323  00000-0 -64987-4 0  9998,2 52476  53.2152 138.5852 0001335 105.7951 254.3188 15.08856303113775,6917.831,95.437,540.619,538.772,0.0
52476.0,STARLINK-3835,PAYLOAD,2024-05-17 17:37:42,15.08840076,0.000126,53.2139,136.5035,105.6485,254.4646,3.6663e-05,2.96e-06,0.0,0 STARLINK-3835,1 52476U 22049AB  24138.73451603  .00000296  00000-0  36663-4 0  9993,2 52476  53.2139 136.5035 0001260 105.6485 254.4646 15.08840076112767,6917.88,95.438,540.617,538.874,0.0
52476.0,STARLINK-3835,PAYLOAD,2024-05-18 04:45:25,15.088279,9.64e-05,53.2147,134.4219,103.2617,256.8482,-0.00010363,-1.936e-05,0.0,0 STARLINK-3835,1 52476U 22049AB  24139.19820753 -.00001936  00000-0 -10363-3 0  9992,2 52476  53.2147 134.4219 0000964 103.2617 256.8482 15.08827900112831,6917.917,95.438,540.449,539.115,0.0
52476.0,STARLINK-3835,PAYLOAD,2024-05-18 09:31:34,15.08824091,0.0001051,53.2152,133.53,97.0377,263.0735,-0.00013523,-2.438e-05,0.0,0 STARLINK-3835,1 52476U 22049AB  24139.39693260 -.00002438  00000-0 -13523-3 0  9994,2 52476  53.2152 133.5300 0001051  97.0377 263.0735 15.08824091113941,6917.929,95.439,540.521,539.067,0.0
52476.0,STARLINK-3835,PAYLOAD,2024-05-19 06:11:35,15.08834761,0.0001313,53.2165,129.665,100.2824,259.8316,-4.5049e-07,-2.95e-06,0.0,0 STARLINK-3835,1 52476U 22049AB  24140.25804924 -.00000295  00000-0 -45049-6 0  9992,2 52476  53.2165 129.6650 0001313 100.2824 259.8316 15.08834761114072,6917.896,95.438,540.67,538.853,0.0
52476.0,STARLINK-3835,PAYLOAD,2024-05-20 04:26:58,15.08856992,0.0001288,53.2152,125.5021,90.9739,269.1401,0.00026975,4.01e-05,0.0,0 STARLINK-3835,1 52476U 22049AB  24141.18539939  .00004010  00000-0  26975-3 0  9997,2 52476  53.2152 125.5021 0001288  90.9739 269.1401 15.08856992113131,6917.828,95.436,540.584,538.802,0.0
52476.0,STARLINK-3835,PAYLOAD,2024-05-20 09:13:08,15.08865927,0.0001276,53.2154,124.6095,97.2269,262.8868,0.00075944,0.00011828,0.0,0 STARLINK-3835,1 52476U 22049AB  24141.38412122  .00011828  00000-0  75944-3 0  9998,2 52476  53.2154 124.6095 0001276  97.2269 262.8868 15.08865927114247,6917.801,95.436,540.549,538.783,0.0
52476.0,STARLINK-3835,PAYLOAD,2024-05-21 04:17:45,15.08850277,0.0001387,53.215,121.0351,113.5686,246.5452,2.8392e-05,1.64e-06,0.0,0 STARLINK-3835,1 52476U 22049AB  24142.17899973  .00000164  00000-0  28392-4 0  9996,2 52476  53.2150 121.0351 0001387 113.5686 246.5452 15.08850277113280,6917.849,95.437,540.673,538.754,0.0
52476.0,STARLINK-3835,PAYLOAD,2024-05-21 09:03:55,15.08848141,0.0001176,53.2151,120.1481,69.7439,290.3679,0.00010515,1.386e-05,0.0,0 STARLINK-3835,1 52476U 22049AB  24142.37772160  .00001386  00000-0  10515-3 0  9990,2 52476  53.2151 120.1481 0001176  69.7439 290.3679 15.08848141114397,6917.856,95.437,540.534,538.907,0.0
52476.0,STARLINK-3835,PAYLOAD,2024-05-22 04:08:32,15.08842279,0.0001326,53.2156,116.5791,100.7746,259.3395,6.2167e-05,7.02e-06,0.0,0 STARLINK-3835,1 52476U 22049AB  24143.17260248  .00000702  00000-0  62167-4 0  9990,2 52476  53.2156 116.5791 0001326 100.7746 259.3395 15.08842279113439,6917.873,95.437,540.656,538.821,0.0
52476.0,STARLINK-3835,PAYLOAD,2024-05-22 05:43:55,15.08845681,0.0001271,53.2157,116.2815,91.824,268.2898,5.9551e-05,6.6e-06,0.0,0 STARLINK-3835,1 52476U 22049AB  24143.23884168  .00000660  00000-0  59551-4 0  9996,2 52476  53.2157 116.2815 0001271  91.8240 268.2898 15.08845681114520,6917.863,95.437,540.607,538.849,0.0
52476.0,STARLINK-3835,PAYLOAD,2024-05-22 21:37:47,15.08841568,0.000164,53.216,113.3114,77.4724,282.6452,0.00015855,2.236e-05,0.0,0 STARLINK-3835,1 52476U 22049AB  24143.90124610  .00002236  00000-0  15855-3 0  9998,2 52476  53.2160 113.3114 0001640  77.4724 282.6452 15.08841568114628,6917.876,95.437,540.875,538.606,0.0
52476.0,STARLINK-3835,PAYLOAD,2024-05-23 05:34:43,15.08842815,0.0001523,53.2164,111.8242,74.1244,285.9916,0.00020247,2.936e-05,0.0,0 STARLINK-3835,1 52476U 22049AB  24144.23244619  .00002936  00000-0  20247-3 0  9995,2 52476  53.2164 111.8242 0001523  74.1244 285.9916 15.08842815113590,6917.872,95.437,540.79,538.683,0.0
52476.0,STARLINK-3835,PAYLOAD,2024-05-23 07:10:06,15.0884586,0.0001408,53.216,111.525,89.9068,270.2085,0.0002486,3.671e-05,0.0,0 STARLINK-3835,1 52476U 22049AB  24144.29868394  .00003671  00000-0  24860-3 0  9995,2 52476  53.2160 111.5250 0001408  89.9068 270.2085 15.08845860114680,6917.862,95.437,540.702,538.753,0.0
52476.0,STARLINK-3835,PAYLOAD,2024-05-24 02:14:44,15.08833215,0.0001478,53.2163,107.956,104.8961,255.2194,0.00030729,4.605e-05,0.0,0 STARLINK-3835,1 52476U 22049AB  24145.09357010  .00004605  00000-0  30729-3 0  9991,2 52476  53.2163 107.9560 0001478 104.8961 255.2194 15.08833215113721,6917.901,95.438,540.789,538.744,0.0
52476.0,STARLINK-3835,PAYLOAD,2024-05-24 07:00:53,15.08847888,0.0001319,53.2173,107.0557,107.5489,252.5648,0.00013889,1.924e-05,0.0,0 STARLINK-3835,1 52476U 22049AB  24145.29228159  .00001924  00000-0  13889-3 0  9993,2 52476  53.2173 107.0557 0001319 107.5489 252.5648 15.08847888113756,6917.856,95.437,540.634,538.809,0.0
52476.0,STARLINK-3835,PAYLOAD,2024-05-25 03:40:54,15.08844133,0.0001554,53.2164,103.1914,115.7661,244.3492,5.1916e-05,5.38e-06,0.0,0 STARLINK-3835,1 52476U 22049AB  24146.15340394  .00000538  00000-0  51916-4 0  9999,2 52476  53.2164 103.1914 0001554 115.7661 244.3492 15.08844133113884,6917.868,95.437,540.808,538.658,0.0
52476.0,STARLINK-3835,PAYLOAD,2024-05-26 03:31:41,15.08843821,0.0001232,53.2175,98.7474,71.0747,289.0379,-7.5137e-05,-1.484e-05,0.0,0 STARLINK-3835,1 52476U 22049AB  24147.14701071 -.00001484  00000-0 -75137-4 0  9996,2 52476  53.2175  98.7474 0001232  71.0747 289.0379 15.08843821114039,6917.869,95.437,540.586,538.881,0.0
52476.0,STARLINK-3835,PAYLOAD,2024-05-26 06:42:27,15.08851833,0.0001406,53.2178,98.1427,94.3791,265.7362,8.1333e-05,1.007e-05,0.0,0 STARLINK-3835,1 52476U 22049AB  24147.27948078  .00001007  00000-0  81333-4 0  9994,2 52476  53.2178  98.1427 0001406  94.3791 265.7362 15.08851833114051,6917.844,95.437,540.682,538.737,0.0
52476.0,STARLINK-3835,PAYLOAD,2024-05-26 21:00:56,15.08833607,0.000138,53.2176,95.4679,93.9704,266.1446,6.5029e-05,7.47e-06,0.0,0 STARLINK-3835,1 52476U 22049AB  24147.87565402  .00000747  00000-0  65029-4 0  9990,2 52476  53.2176  95.4679 0001380  93.9704 266.1446 15.08833607114145,6917.9,95.438,540.72,538.81,0.0
52476.0,STARLINK-3835,PAYLOAD,2024-05-27 03:22:28,15.0884284,0.0001468,53.2176,94.2771,105.5244,254.591,7.6675e-05,9.33e-06,0.0,0 STARLINK-3835,1 52476U 22049AB  24148.14060729  .00000933  00000-0  76675-4 0  9999,2 52476  53.2176  94.2771 0001468 105.5244 254.5910 15.08842840114181,6917.872,95.437,540.752,538.721,0.0
52476.0,STARLINK-3835,PAYLOAD,2024-05-27 12:54:47,15.08838812,0.0001281,53.2184,92.4939,93.2937,266.8201,9.8168e-05,1.275e-05,0.0,0 STARLINK-3835,1 52476U 22049AB  24148.53804948  .00001275  00000-0  98168-4 0  9992,2 52476  53.2184  92.4939 0001281  93.2937 266.8201 15.08838812115321,6917.884,95.438,540.635,538.863,0.0
52476.0,STARLINK-3835,PAYLOAD,2024-05-27 20:51:43,15.08833801,0.000152,53.2179,91.0067,98.2059,261.9106,7.7635e-05,9.48e-06,0.0,0 STARLINK-3835,1 52476U 22049AB  24148.86925537  .00000948  00000-0  77635-4 0  9998,2 52476  53.2179  91.0067 0001520  98.2059 261.9106 15.08833801114296,6917.899,95.438,540.816,538.713,0.0
52476.0,STARLINK-3835,PAYLOAD,2024-05-28 12:45:34,15.0883933,0.0001413,53.2186,88.0353,98.8979,261.2173,3.3808e-05,2.5e-06,0.0,0 STARLINK-3835,1 52476U 22049AB  24149.53165407  .00000250  00000-0  33808-4 0  9995,2 52476  53.2186  88.0353 0001413  98.8979 261.2173 15.08839330115477,6917.882,95.438,540.725,538.77,0.0
52476.0,STARLINK-3835,PAYLOAD,2024-05-29 04:39:26,15.08842172,0.0001378,53.2184,85.0603,92.0417,268.0733,5.5179e-05,5.9e-06,0.0,0 STARLINK-3835,1 52476U 22049AB  24150.19405402  .00000590  00000-0  55179-4 0  9993,2 52476  53.2184  85.0603 0001378  92.0417 268.0733 15.08842172114499,6917.874,95.437,540.692,538.785,0.0
